[{"OBJECT_NAME":"STARLINK-4146","OBJECT_ID":"2022-086BE","EPOCH":"2026-03-09T21:40:02.523072","MEAN_MOTION":15.08843673,"ECCENTRICITY":0.0001,"INCLINATION":53.2181,"RA_OF_ASC_NODE":172.9999,"ARG_OF_PERICENTER":93.8211,"MEAN_ANOMALY":266.2896,"EPHEMERIS_TYPE":0,"CLASSIFICATION_TYPE":"U","NORAD_CAT_ID":53294,"ELEMENT_SET_NO":999,"REV_AT_EPOCH":20140,"BSTAR":-5.4891792e-5,"MEAN_MOTION_DOT":-1.161e-5,"MEAN_MOTION_DDOT":0},{"OBJECT_NAME":"QPS-SAR-7 (TSUKUYOMI-II)","OBJECT_ID":"2024-066F","EPOCH":"2026-03-09T22:44:25.024704","MEAN_MOTION":15.07520552,"ECCENTRICITY":3.06e-5,"INCLINATION":45.6053,"RA_OF_ASC_NODE":45.6252,"ARG_OF_PERICENTER":310.671,"MEAN_ANOMALY":49.4148,"EPHEMERIS_TYPE":0,"CLASSIFICATION_TYPE":"U","NORAD_CAT_ID":59447,"ELEMENT_SET_NO":999,"REV_AT_EPOCH":10524,"BSTAR":0.00063712098,"MEAN_MOTION_DOT":9.59e-5,"MEAN_MOTION_DDOT":0}]
